{"type": "FeatureCollection", "features": [ {"type": "Feature", "properties": {"norad_id": 31361, "name": "FENGYUN 1C DEB", "group": "fengyun-1c-debris", "lat": -62.608534506479764, "lon": 138.35640364007259, "alt_km": 868.1195631963228, "timestamp": "2025-12-26T10:30:50.549874+00:00", "meta": {"OBJECT_NAME": "FENGYUN 1C DEB", "OBJECT_ID": "1999-025BRR", "EPOCH": "2025-12-24T04:51:37.905120", "MEAN_MOTION": 14.17751491, "ECCENTRICITY": 0.00458271, "INCLINATION": 98.552, "RA_OF_ASC_NODE": 333.0859, "ARG_OF_PERICENTER": 38.3014, "MEAN_ANOMALY": 322.1402, "EPHEMERIS_TYPE": 0, "CLASSIFICATION_TYPE": "U", "NORAD_CAT_ID": 31361, "ELEMENT_SET_NO": 999, "REV_AT_EPOCH": 96726, "BSTAR": 0.00013339901, "MEAN_MOTION_DOT": 2.33e-06, "MEAN_MOTION_DDOT": 0}, "tle": {"line1": "1 31361U 99025BRR 25358.20252205  .00000233  00000+0  13340-3 0  9991", "line2": "2 31361  98.5520 333.0859 0045827  38.3014 322.1402 14.17751491967265"}}, "geometry": {"type": "Point", "coordinates": [138.35640364007259, -62.608534506479764]}}, {"type": "Feature", "properties": {"norad_id": 31362, "name": "FENGYUN 1C DEB", "group": "fengyun-1c-debris", "lat": -23.660598475918423, "lon": 170.59975479735667, "alt_km": 851.0241027086904, "timestamp": "2025-12-26T10:30:50.549884+00:00", "meta": {"OBJECT_NAME": "FENGYUN 1C DEB", "OBJECT_ID": "1999-025BRS", "EPOCH": "2025-12-25T20:00:11.166048", "MEAN_MOTION": 14.1738766, "ECCENTRICITY": 0.00191533, "INCLINATION": 98.6532, "RA_OF_ASC_NODE": 353.8369, "ARG_OF_PERICENTER": 59.9167, "MEAN_ANOMALY": 300.3904, "EPHEMERIS_TYPE": 0, "CLASSIFICATION_TYPE": "U", "NORAD_CAT_ID": 31362, "ELEMENT_SET_NO": 999, "REV_AT_EPOCH": 96761, "BSTAR": 0.00016907424, "MEAN_MOTION_DOT": 3e-06, "MEAN_MOTION_DDOT": 0}, "tle": {"line1": "1 31362U 99025BRS 25359.83346257  .00000300  00000+0  16907-3 0  9990", "line2": "2 31362  98.6532 353.8369 0019153  59.9167 300.3904 14.17387660967614"}}, "geometry": {"type": "Point", "coordinates": [170.59975479735667, -23.660598475918423]}}, {"type": "Feature", "properties": {"norad_id": 31364, "name": "FENGYUN 1C DEB", "group": "fengyun-1c-debris", "lat": 80.14564433218861, "lon": 10.54507169698232, "alt_km": 771.9414033585481, "timestamp": "2025-12-26T10:30:50.549894+00:00", "meta": {"OBJECT_NAME": "FENGYUN 1C DEB", "OBJECT_ID": "1999-025BRU", "EPOCH": "2025-12-25T18:48:06.900480", "MEAN_MOTION": 14.14790679, "ECCENTRICITY": 0.00922344, "INCLINATION": 99.262, "RA_OF_ASC_NODE": 119.9167, "ARG_OF_PERICENTER": 112.591, "MEAN_ANOMALY": 248.5052, "EPHEMERIS_TYPE": 0, "CLASSIFICATION_TYPE": "U", "NORAD_CAT_ID": 31364, "ELEMENT_SET_NO": 999, "REV_AT_EPOCH": 95061, "BSTAR": 0.0028455416, "MEAN_MOTION_DOT": 5.673e-05, "MEAN_MOTION_DDOT": 0}, "tle": {"line1": "1 31364U 99025BRU 25359.78341320  .00005673  00000+0  28455-2 0  9990", "line2": "2 31364  99.2620 119.9167 0092234 112.5910 248.5052 14.14790679950615"}}, "geometry": {"type": "Point", "coordinates": [10.54507169698232, 80.14564433218861]}}, {"type": "Feature", "properties": {"norad_id": 31365, "name": "FENGYUN 1C DEB", "group": "fengyun-1c-debris", "lat": -59.00711517415482, "lon": 100.42595483157892, "alt_km": 773.9452534580532, "timestamp": "2025-12-26T10:30:50.549904+00:00", "meta": {"OBJECT_NAME": "FENGYUN 1C DEB", "OBJECT_ID": "1999-025BRV", "EPOCH": "2025-12-25T16:28:33.748608", "MEAN_MOTION": 14.42008029, "ECCENTRICITY": 0.00428196, "INCLINATION": 98.6729, "RA_OF_ASC_NODE": 84.9422, "ARG_OF_PERICENTER": 182.5121, "MEAN_ANOMALY": 177.5859, "EPHEMERIS_TYPE": 0, "CLASSIFICATION_TYPE": "U", "NORAD_CAT_ID": 31365, "ELEMENT_SET_NO": 999, "REV_AT_EPOCH": 96815, "BSTAR": 0.0021433681, "MEAN_MOTION_DOT": 7.071e-05, "MEAN_MOTION_DDOT": 0}, "tle": {"line1": "1 31365U 99025BRV 25359.68650172  .00007071  00000+0  21434-2 0  9992", "line2": "2 31365  98.6729  84.9422 0042819 182.5121 177.5859 14.42008029968155"}}, "geometry": {"type": "Point", "coordinates": [100.42595483157892, -59.00711517415482]}}, {"type": "Feature", "properties": {"norad_id": 31367, "name": "FENGYUN 1C DEB", "group": "fengyun-1c-debris", "lat": 61.1312150000294, "lon": 91.37883759557725, "alt_km": 782.9090008324838, "timestamp": "2025-12-26T10:30:50.549917+00:00", "meta": {"OBJECT_NAME": "FENGYUN 1C DEB", "OBJECT_ID": "1999-025BRX", "EPOCH": "2025-12-25T15:51:47.845152", "MEAN_MOTION": 14.47548808, "ECCENTRICITY": 0.0098682, "INCLINATION": 98.7454, "RA_OF_ASC_NODE": 254.3627, "ARG_OF_PERICENTER": 337.6708, "MEAN_ANOMALY": 51.8549, "EPHEMERIS_TYPE": 0, "CLASSIFICATION_TYPE": "U", "NORAD_CAT_ID": 31367, "ELEMENT_SET_NO": 999, "REV_AT_EPOCH": 98653, "BSTAR": 0.00069845, "MEAN_MOTION_DOT": 2.68e-05, "MEAN_MOTION_DDOT": 0}, "tle": {"line1": "1 31367U 99025BRX 25359.66097043  .00002680  00000+0  69845-3 0  9994", "line2": "2 31367  98.7454 254.3627 0098682 337.6708  51.8549 14.47548808986537"}}, "geometry": {"type": "Point", "coordinates": [91.37883759557725, 61.1312150000294]}}, {"type": "Feature", "properties": {"norad_id": 31369, "name": "FENGYUN 1C DEB", "group": "fengyun-1c-debris", "lat": -41.900252208624316, "lon": 153.52265014585075, "alt_km": 802.4962709282472, "timestamp": "2025-12-26T10:30:50.549927+00:00", "meta": {"OBJECT_NAME": "FENGYUN 1C DEB", "OBJECT_ID": "1999-025BRZ", "EPOCH": "2025-12-24T17:41:47.256864", "MEAN_MOTION": 14.19424742, "ECCENTRICITY": 0.00542422, "INCLINATION": 98.6201, "RA_OF_ASC_NODE": 339.6902, "ARG_OF_PERICENTER": 264.1691, "MEAN_ANOMALY": 272.8797, "EPHEMERIS_TYPE": 0, "CLASSIFICATION_TYPE": "U", "NORAD_CAT_ID": 31369, "ELEMENT_SET_NO": 999, "REV_AT_EPOCH": 64497, "BSTAR": 0.00025598722, "MEAN_MOTION_DOT": 5.03e-06, "MEAN_MOTION_DDOT": 0}, "tle": {"line1": "1 31369U 99025BRZ 25358.73735251  .00000503  00000+0  25599-3 0  9993", "line2": "2 31369  98.6201 339.6902 0054242 264.1691 272.8797 14.19424742644978"}}, "geometry": {"type": "Point", "coordinates": [153.52265014585075, -41.900252208624316]}}, {"type": "Feature", "properties": {"norad_id": 31370, "name": "FENGYUN 1C DEB", "group": "fengyun-1c-debris", "lat": -58.1945948804769, "lon": 165.68568716210524, "alt_km": 844.6655535981345, "timestamp": "2025-12-26T10:30:50.549937+00:00", "meta": {"OBJECT_NAME": "FENGYUN 1C DEB", "OBJECT_ID": "1999-025BSA", "EPOCH": "2025-12-25T11:14:09.232224", "MEAN_MOTION": 14.09723002, "ECCENTRICITY": 0.0033165, "INCLINATION": 98.7541, "RA_OF_ASC_NODE": 359.129, "ARG_OF_PERICENTER": 260.9395, "MEAN_ANOMALY": 98.8022, "EPHEMERIS_TYPE": 0, "CLASSIFICATION_TYPE": "U", "NORAD_CAT_ID": 31370, "ELEMENT_SET_NO": 999, "REV_AT_EPOCH": 96473, "BSTAR": 0.00029824, "MEAN_MOTION_DOT": 4.83e-06, "MEAN_MOTION_DDOT": 0}, "tle": {"line1": "1 31370U 99025BSA 25359.46816241  .00000483  00000+0  29824-3 0  9997", "line2": "2 31370  98.7541 359.1290 0033165 260.9395  98.8022 14.09723002964737"}}, "geometry": {"type": "Point", "coordinates": [165.68568716210524, -58.1945948804769]}}, {"type": "Feature", "properties": {"norad_id": 31371, "name": "FENGYUN 1C DEB", "group": "fengyun-1c-debris", "lat": -65.11927948956685, "lon": -166.47282638124167, "alt_km": 840.3817548822944, "timestamp": "2025-12-26T10:30:50.549947+00:00", "meta": {"OBJECT_NAME": "FENGYUN 1C DEB", "OBJECT_ID": "1999-025BSB", "EPOCH": "2025-12-25T07:41:54.891744", "MEAN_MOTION": 14.04537424, "ECCENTRICITY": 0.007854, "INCLINATION": 98.7649, "RA_OF_ASC_NODE": 31.8786, "ARG_OF_PERICENTER": 211.4309, "MEAN_ANOMALY": 148.2153, "EPHEMERIS_TYPE": 0, "CLASSIFICATION_TYPE": "U", "NORAD_CAT_ID": 31371, "ELEMENT_SET_NO": 999, "REV_AT_EPOCH": 95923, "BSTAR": 0.00087753, "MEAN_MOTION_DOT": 1.397e-05, "MEAN_MOTION_DDOT": 0}, "tle": {"line1": "1 31371U 99025BSB 25359.32077421  .00001397  00000+0  87753-3 0  9992", "line2": "2 31371  98.7649  31.8786 0078540 211.4309 148.2153 14.04537424959233"}}, "geometry": {"type": "Point", "coordinates": [-166.47282638124167, -65.11927948956685]}}, {"type": "Feature", "properties": {"norad_id": 31372, "name": "FENGYUN 1C DEB", "group": "fengyun-1c-debris", "lat": -6.164703042102081, "lon": -6.536730258106537, "alt_km": 788.7243580008599, "timestamp": "2025-12-26T10:30:50.549964+00:00", "meta": {"OBJECT_NAME": "FENGYUN 1C DEB", "OBJECT_ID": "1999-025BSC", "EPOCH": "2025-12-25T22:45:38.246976", "MEAN_MOTION": 14.26632336, "ECCENTRICITY": 0.0033884, "INCLINATION": 99.3752, "RA_OF_ASC_NODE": 351.9167, "ARG_OF_PERICENTER": 37.9012, "MEAN_ANOMALY": 322.4542, "EPHEMERIS_TYPE": 0, "CLASSIFICATION_TYPE": "U", "NORAD_CAT_ID": 31372, "ELEMENT_SET_NO": 999, "REV_AT_EPOCH": 96039, "BSTAR": 0.0016096, "MEAN_MOTION_DOT": 3.864e-05, "MEAN_MOTION_DDOT": 0}, "tle": {"line1": "1 31372U 99025BSC 25359.94835934  .00003864  00000+0  16096-2 0  9994", "line2": "2 31372  99.3752 351.9167 0033884  37.9012 322.4542 14.26632336960398"}}, "geometry": {"type": "Point", "coordinates": [-6.536730258106537, -6.164703042102081]}}, {"type": "Feature", "properties": {"norad_id": 31376, "name": "FENGYUN 1C DEB", "group": "fengyun-1c-debris", "lat": -11.550967619603577, "lon": 95.76319266014548, "alt_km": 662.7470171145724, "timestamp": "2025-12-26T10:30:50.549975+00:00", "meta": {"OBJECT_NAME": "FENGYUN 1C DEB", "OBJECT_ID": "1999-025BSG", "EPOCH": "2025-12-25T23:46:54.458112", "MEAN_MOTION": 14.61969129, "ECCENTRICITY": 0.0048368, "INCLINATION": 98.8322, "RA_OF_ASC_NODE": 277.1067, "ARG_OF_PERICENTER": 226.9364, "MEAN_ANOMALY": 132.7781, "EPHEMERIS_TYPE": 0, "CLASSIFICATION_TYPE": "U", "NORAD_CAT_ID": 31376, "ELEMENT_SET_NO": 999, "REV_AT_EPOCH": 98336, "BSTAR": 0.002035, "MEAN_MOTION_DOT": 0.00010325, "MEAN_MOTION_DDOT": 0}, "tle": {"line1": "1 31376U 99025BSG 25359.99090808  .00010325  00000+0  20350-2 0  9994", "line2": "2 31376  98.8322 277.1067 0048368 226.9364 132.7781 14.61969129983361"}}, "geometry": {"type": "Point", "coordinates": [95.76319266014548, -11.550967619603577]}}]}